CHUANG XIN 26 (CX-26)   
1 69972U 26158A   26194.51442212 -.00000212  00000+0 -21871-4 0  9997
2 69972  49.9860 287.5119 0004887 294.2352  65.8050 14.25122238   462
STARLINK-38024          
1 69975U 26159A   26197.58335648 -.01969538  10742-2 -56326-2 0  9999
2 69975  97.2856  36.2977 0001496  81.3328 156.8515 15.93351571  2074
STARLINK-37993          
1 69976U 26159B   26197.58335648 -.01939835  10457-2 -54999-2 0  9994
2 69976  97.2855  36.2980 0001494  83.2024 156.2445 15.93513832  2076
STARLINK-37995          
1 69977U 26159C   26197.58335648 -.01916077  10236-2 -53853-2 0  9991
2 69977  97.2853  36.2988 0001490  81.0262 159.7512 15.93678211  2075
STARLINK-38057          
1 69978U 26159D   26197.58335648 -.01900334  10096-2 -52932-2 0  9992
2 69978  97.2854  36.2991 0001500  77.8245 164.3888 15.93848214  2077
STARLINK-38063          
1 69979U 26159E   26197.58335648 -.01888014  99920-3 -52114-2 0  9999
2 69979  97.2853  36.2999 0001426  82.9483 160.7339 15.94019629  2075
STARLINK-38093          
1 69980U 26159F   26197.58335648 -.01864123  97729-3 -51012-2 0  9997
2 69980  97.2855  36.3003 0001480  79.3467 165.8347 15.94180831  2077
STARLINK-38050          
1 69981U 26159G   26197.58335648 -.01855069  97011-3 -50320-2 0  9992
2 69981  97.2853  36.3009 0001454  80.9084 165.6467 15.94346686  2079
STARLINK-38065          
1 69982U 26159H   26197.58335648 -.01836086  95316-3 -49393-2 0  9995
2 69982  97.2852  36.3016 0001513  74.7678 173.2307 15.94501699  2078
STARLINK-38077          
1 69983U 26159J   26197.58335648 -.01824234  94327-3 -48659-2 0  9993
2 69983  97.2853  36.3021 0001392  79.6161 169.7887 15.94661264  2070
STARLINK-38068          
1 69984U 26159K   26197.58335648 -.01803438  92467-3 -47732-2 0  9991
2 69984  97.2852  36.3033 0001337  80.6214 170.0303 15.94805639  2077
STARLINK-38089          
1 69985U 26159L   26197.58335648 -.01797099  92015-3 -47161-2 0  9992
2 69985  97.2852  36.3039 0001385  77.0465 175.0564 15.94964921  2079
STARLINK-38073          
1 69986U 26159M   26197.58335648 -.01781417  90661-3 -46382-2 0  9999
2 69986  97.2851  36.3044 0001388  75.2134 178.2268 15.95111648  2078
STARLINK-38099          
1 69987U 26159N   26197.58335648 -.01769776  89696-3 -45722-2 0  9997
2 69987  97.2851  36.3049 0001340  74.4075 180.2991 15.95256311  2070
STARLINK-38064          
1 69988U 26159P   26197.58335648 -.01749930  88101-3 -44501-2 0  9992
2 69988  97.2851  36.3057 0001439  67.3180 190.0601 15.95549173  2075
STARLINK-38080          
1 69989U 26159Q   26197.58335648 -.01763654  89260-3 -45198-2 0  9992
2 69989  97.2850  36.3054 0001451  70.2091 185.8597 15.95406456  2072
STARLINK-38070          
1 69990U 26159R   26197.58335648 -.01737982  87114-3 -43859-2 0  9997
2 69990  97.2849  36.3063 0001302  72.3088 186.4420 15.95691705  2071
STARLINK-38042          
1 69991U 26159S   26197.58335648 -.01718138  85383-3 -43058-2 0  9997
2 69991  97.2849  36.3069 0001402  75.6712 184.2361 15.95818481  2071
STARLINK-38071          
1 69992U 26159T   26197.58335648 -.01709954  84748-3 -42542-2 0  9995
2 69992  97.2849  36.3073 0001416  70.4051 190.7011 15.95952967  2073
STARLINK-38082          
1 69993U 26159U   26197.58335648 -.01689976  83025-3 -41753-2 0  9997
2 69993  97.2848  36.3078 0001294  74.0568 188.2678 15.96080080  2075
STARLINK-38090          
1 69994U 26159V   26197.58335648 -.01687180  82889-3 -41380-2 0  9996
2 69994  97.2848  36.3084 0001349  77.6342 185.9399 15.96215454  2072
STARLINK-38084          
1 69995U 26159W   26197.58335648 -.01673263  81740-3 -40734-2 0  9991
2 69995  97.2849  36.3090 0001323  71.0146 193.9020 15.96351882  2079
STARLINK-38085          
1 69996U 26159X   26197.58335648 -.01656255  80301-3 -40060-2 0  9998
2 69996  97.2849  36.3096 0001275  74.8396 191.2209 15.96469586  2071
STARLINK-38091          
1 69997U 26159Y   26197.58335648 -.01650445  79893-3 -39628-2 0  9996
2 69997  97.2848  36.3100 0001346  68.2123 199.1554 15.96603918  2070
STARLINK-38086          
1 69998U 26159Z   26197.58335648 -.01640505  79107-3 -39118-2 0  9995
2 69998  97.2849  36.3107 0001242  79.1131 189.4707 15.96730223  2076
