OBJECT_NAME,OBJECT_ID,EPOCH,MEAN_MOTION,ECCENTRICITY,INCLINATION,RA_OF_ASC_NODE,ARG_OF_PERICENTER,MEAN_ANOMALY,EPHEMERIS_TYPE,CLASSIFICATION_TYPE,NORAD_CAT_ID,ELEMENT_SET_NO,REV_AT_EPOCH,BSTAR,MEAN_MOTION_DOT,MEAN_MOTION_DDOT
CHUANG XIN 26 (CX-26),2026-158A,2026-07-13T12:20:46.071168,14.25122238,.0004887,49.9860,287.5119,294.2352,65.8050,0,U,69972,999,46,-.21871415E-4,-.212E-5,0
STARLINK-38024,2026-159A,2026-07-16T14:00:01.999872,15.93351571,.0001496,97.2856,36.2977,81.3328,156.8515,0,U,69975,999,207,-.5632593E-2,-.1969538E-1,.10742119E-2
STARLINK-37993,2026-159B,2026-07-16T14:00:01.999872,15.93513832,.00014949,97.2855,36.2980,83.2024,156.2445,0,U,69976,999,207,-.54999043E-2,-.1939835E-1,.10457261E-2
STARLINK-37995,2026-159C,2026-07-16T14:00:01.999872,15.93678211,.00014903,97.2853,36.2988,81.0262,159.7512,0,U,69977,999,207,-.53852885E-2,-.1916077E-1,.10235636E-2
STARLINK-38057,2026-159D,2026-07-16T14:00:01.999872,15.93848214,.00015003,97.2854,36.2991,77.8245,164.3888,0,U,69978,999,207,-.52931738E-2,-.1900334E-1,.10096406E-2
STARLINK-38063,2026-159E,2026-07-16T14:00:01.999872,15.94019629,.00014266,97.2853,36.2999,82.9483,160.7339,0,U,69979,999,207,-.5211424E-2,-.1888014E-1,.9991985E-3
STARLINK-38093,2026-159F,2026-07-16T14:00:01.999872,15.94180831,.00014807,97.2855,36.3003,79.3467,165.8347,0,U,69980,999,207,-.51012384E-2,-.1864123E-1,.97728564E-3
STARLINK-38050,2026-159G,2026-07-16T14:00:01.999872,15.94346686,.00014547,97.2853,36.3009,80.9084,165.6467,0,U,69981,999,207,-.50320332E-2,-.1855069E-1,.97010872E-3
STARLINK-38065,2026-159H,2026-07-16T14:00:01.999872,15.94501699,.00015132,97.2852,36.3016,74.7678,173.2307,0,U,69982,999,207,-.49393112E-2,-.1836086E-1,.95316318E-3
STARLINK-38077,2026-159J,2026-07-16T14:00:01.999872,15.94661264,.00013925,97.2853,36.3021,79.6161,169.7887,0,U,69983,999,207,-.48659089E-2,-.1824234E-1,.94326958E-3
STARLINK-38068,2026-159K,2026-07-16T14:00:01.999872,15.94805639,.00013375,97.2852,36.3033,80.6214,170.0303,0,U,69984,999,207,-.47731754E-2,-.1803438E-1,.92466713E-3
STARLINK-38089,2026-159L,2026-07-16T14:00:01.999872,15.94964921,.0001385,97.2852,36.3039,77.0465,175.0564,0,U,69985,999,207,-.4716138E-2,-.1797099E-1,.92015396E-3
STARLINK-38073,2026-159M,2026-07-16T14:00:01.999872,15.95111648,.00013887,97.2851,36.3044,75.2134,178.2268,0,U,69986,999,207,-.46381733E-2,-.1781417E-1,.90661468E-3
STARLINK-38099,2026-159N,2026-07-16T14:00:01.999872,15.95256311,.00013404,97.2851,36.3049,74.4075,180.2991,0,U,69987,999,207,-.45721785E-2,-.1769776E-1,.8969565E-3
STARLINK-38064,2026-159P,2026-07-16T14:00:01.999872,15.95549173,.00014398,97.2851,36.3057,67.3180,190.0601,0,U,69988,999,207,-.44501074E-2,-.174993E-1,.8810118E-3
STARLINK-38080,2026-159Q,2026-07-16T14:00:01.999872,15.95406456,.00014518,97.2850,36.3054,70.2091,185.8597,0,U,69989,999,207,-.45197572E-2,-.1763654E-1,.89259749E-3
STARLINK-38070,2026-159R,2026-07-16T14:00:01.999872,15.95691705,.00013022,97.2849,36.3063,72.3088,186.4420,0,U,69990,999,207,-.43858598E-2,-.1737982E-1,.87114019E-3
STARLINK-38042,2026-159S,2026-07-16T14:00:01.999872,15.95818481,.00014022,97.2849,36.3069,75.6712,184.2361,0,U,69991,999,207,-.43057612E-2,-.1718138E-1,.85383049E-3
STARLINK-38071,2026-159T,2026-07-16T14:00:01.999872,15.95952967,.0001416,97.2849,36.3073,70.4051,190.7011,0,U,69992,999,207,-.42541657E-2,-.1709954E-1,.8474816E-3
STARLINK-38082,2026-159U,2026-07-16T14:00:01.999872,15.96080080,.00012943,97.2848,36.3078,74.0568,188.2678,0,U,69993,999,207,-.41753045E-2,-.1689976E-1,.83024673E-3
STARLINK-38090,2026-159V,2026-07-16T14:00:01.999872,15.96215454,.00013494,97.2848,36.3084,77.6342,185.9399,0,U,69994,999,207,-.41379998E-2,-.168718E-1,.82889008E-3
STARLINK-38084,2026-159W,2026-07-16T14:00:01.999872,15.96351882,.00013234,97.2849,36.3090,71.0146,193.9020,0,U,69995,999,207,-.40733827E-2,-.1673263E-1,.81739597E-3
STARLINK-38085,2026-159X,2026-07-16T14:00:01.999872,15.96469586,.00012752,97.2849,36.3096,74.8396,191.2209,0,U,69996,999,207,-.40059542E-2,-.1656255E-1,.80300573E-3
STARLINK-38091,2026-159Y,2026-07-16T14:00:01.999872,15.96603918,.00013463,97.2848,36.3100,68.2123,199.1554,0,U,69997,999,207,-.39627817E-2,-.1650445E-1,.79892513E-3
STARLINK-38086,2026-159Z,2026-07-16T14:00:01.999872,15.96730223,.00012429,97.2849,36.3107,79.1131,189.4707,0,U,69998,999,207,-.39118191E-2,-.1640505E-1,.79106618E-3
